start=new Date('2022-05-19T00:00:00.000Z').valueOf();
sats=[{"RA_OF_ASC_NODE":"30.5426","ARG_OF_PERICENTER":"56.4999","ECCENTRICITY":"0.00014910","EPOCH":"2022-05-18T19:17:23.244864","OBJECT_NAME":"STARLINK-1627","DECAY_DATE":null,"MEAN_MOTION_DDOT":"0.0000000000000","TLE_LINE2":"2 46168  53.0555  30.5426 0001491  56.4999 303.6132 15.06408005 97123","BSTAR":"0.00023117000000","OBJECT_ID":"2020-057BD","CLASSIFICATION_TYPE":"U","INCLINATION":"53.0555","PERIOD":"95.592","TLE_LINE1":"1 46168U 20057BD  22138.80374126  .00003164  00000-0  23117-3 0  9997","COUNTRY_CODE":"US","MEAN_ANOMALY":"303.6132","EPHEMERIS_TYPE":"0","SITE":"AFETR","OBJECT_TYPE":"PAYLOAD","MEAN_MOTION":"15.06408005","ELEMENT_SET_NO":"999","SEMIMAJOR_AXIS":"6925.324","REF_FRAME":"TEME","LAUNCH_DATE":"2020-08-18","APOAPSIS":"548.222","MEAN_MOTION_DOT":"0.00003164","PERIAPSIS":"546.156","GP_ID":"203903476","FILE":"3452356","MEAN_ELEMENT_THEORY":"SGP4","CENTER_NAME":"EARTH","RCS_SIZE":"LARGE","TIME_SYSTEM":"UTC","NORAD_CAT_ID":"46168","REV_AT_EPOCH":"9712"},{"INCLINATION":"53.0011","OBJECT_ID":"2020-057BE","CLASSIFICATION_TYPE":"U","BSTAR":"0.00006545800000","EPHEMERIS_TYPE":"0","MEAN_ANOMALY":"303.6038","TLE_LINE1":"1 46169U 20057BE  22138.56924157  .00000675  00000-0  65458-4 0  9995","PERIOD":"95.644","COUNTRY_CODE":"US","EPOCH":"2022-05-18T13:39:42.471648","ECCENTRICITY":"0.00016950","ARG_OF_PERICENTER":"56.5112","RA_OF_ASC_NODE":"81.5856","TLE_LINE2":"2 46169  53.0011  81.5856 0001695  56.5112 303.6038 15.05587752 97017","MEAN_MOTION_DDOT":"0.0000000000000","OBJECT_NAME":"STARLINK-1628","DECAY_DATE":null,"CENTER_NAME":"EARTH","MEAN_ELEMENT_THEORY":"SGP4","FILE":"3452063","REV_AT_EPOCH":"9701","NORAD_CAT_ID":"46169","RCS_SIZE":"LARGE","TIME_SYSTEM":"UTC","ELEMENT_SET_NO":"999","MEAN_MOTION":"15.05587752","OBJECT_TYPE":"PAYLOAD","SITE":"AFETR","PERIAPSIS":"548.530","MEAN_MOTION_DOT":"0.00000675","GP_ID":"203876280","APOAPSIS":"550.878","LAUNCH_DATE":"2020-08-18","SEMIMAJOR_AXIS":"6927.839","REF_FRAME":"TEME"},{"OBJECT_ID":"2020-057BG","CLASSIFICATION_TYPE":"U","INCLINATION":"53.0562","BSTAR":"0.00004006000000","EPHEMERIS_TYPE":"0","PERIOD":"95.593","TLE_LINE1":"1 46171U 20057BG  22139.07469333  .00000315  00000-0  40060-4 0  9998","COUNTRY_CODE":"US","MEAN_ANOMALY":"303.3963","ECCENTRICITY":"0.00018100","EPOCH":"2022-05-19T01:47:33.503712","RA_OF_ASC_NODE":"59.3256","ARG_OF_PERICENTER":"56.7199","MEAN_MOTION_DDOT":"0.0000000000000","TLE_LINE2":"2 46171  53.0562  59.3256 0001810  56.7199 303.3963 15.06386618 97400","OBJECT_NAME":"STARLINK-1633","DECAY_DATE":null,"CENTER_NAME":"EARTH","FILE":"3452426","MEAN_ELEMENT_THEORY":"SGP4","REV_AT_EPOCH":"9740","RCS_SIZE":"LARGE","TIME_SYSTEM":"UTC","NORAD_CAT_ID":"46171","MEAN_MOTION":"15.06386618","ELEMENT_SET_NO":"999","SITE":"AFETR","OBJECT_TYPE":"PAYLOAD","MEAN_MOTION_DOT":"0.00000315","PERIAPSIS":"546.001","GP_ID":"203909727","SEMIMAJOR_AXIS":"6925.390","REF_FRAME":"TEME","LAUNCH_DATE":"2020-08-18","APOAPSIS":"548.508"},{"MEAN_ELEMENT_THEORY":"SGP4","FILE":"3450785","CENTER_NAME":"EARTH","NORAD_CAT_ID":"46172","TIME_SYSTEM":"UTC","RCS_SIZE":"LARGE","REV_AT_EPOCH":"9726","OBJECT_TYPE":"PAYLOAD","SITE":"AFETR","ELEMENT_SET_NO":"999","MEAN_MOTION":"15.06396083","APOAPSIS":"548.386","LAUNCH_DATE":"2020-08-18","REF_FRAME":"TEME","SEMIMAJOR_AXIS":"6925.361","GP_ID":"203799105","PERIAPSIS":"546.065","MEAN_MOTION_DOT":"0.00000504","BSTAR":"0.00005273600000","INCLINATION":"53.0538","CLASSIFICATION_TYPE":"U","OBJECT_ID":"2020-057BH","MEAN_ANOMALY":"306.2333","COUNTRY_CODE":"US","TLE_LINE1":"1 46172U 20057BH  22138.16057597  .00000504  00000-0  52736-4 0  9996","PERIOD":"95.592","EPHEMERIS_TYPE":"0","ARG_OF_PERICENTER":"53.8811","RA_OF_ASC_NODE":"63.4371","EPOCH":"2022-05-18T03:51:13.763808","ECCENTRICITY":"0.00016760","DECAY_DATE":null,"OBJECT_NAME":"STARLINK-1635","TLE_LINE2":"2 46172  53.0538  63.4371 0001676  53.8811 306.2333 15.06396083 97261","MEAN_MOTION_DDOT":"0.0000000000000"},{"RA_OF_ASC_NODE":"79.0677","ARG_OF_PERICENTER":"44.3689","ECCENTRICITY":"0.00019190","EPOCH":"2022-05-19T03:15:07.158528","DECAY_DATE":null,"OBJECT_NAME":"STARLINK-1640","TLE_LINE2":"2 46173  53.0562  79.0677 0001919  44.3689 315.7453 15.06391841 97130","MEAN_MOTION_DDOT":"0.0000000000000","BSTAR":"0.00013520000000","CLASSIFICATION_TYPE":"U","OBJECT_ID":"2020-057BJ","INCLINATION":"53.0562","COUNTRY_CODE":"US","PERIOD":"95.593","TLE_LINE1":"1 46173U 20057BJ  22139.13549952  .00001732  00000-0  13520-3 0  9997","MEAN_ANOMALY":"315.7453","EPHEMERIS_TYPE":"0","SITE":"AFETR","OBJECT_TYPE":"PAYLOAD","MEAN_MOTION":"15.06391841","ELEMENT_SET_NO":"999","REF_FRAME":"TEME","SEMIMAJOR_AXIS":"6925.374","LAUNCH_DATE":"2020-08-18","APOAPSIS":"548.568","GP_ID":"203909757","PERIAPSIS":"545.910","MEAN_MOTION_DOT":"0.00001732","FILE":"3452429","MEAN_ELEMENT_THEORY":"SGP4","CENTER_NAME":"EARTH","TIME_SYSTEM":"UTC","RCS_SIZE":"LARGE","NORAD_CAT_ID":"46173","REV_AT_EPOCH":"9713"},{"CLASSIFICATION_TYPE":"U","OBJECT_ID":"2020-057BK","INCLINATION":"53.0569","BSTAR":"0.00011382000000","EPHEMERIS_TYPE":"0","COUNTRY_CODE":"US","PERIOD":"95.592","TLE_LINE1":"1 46174U 20057BK  22139.14287373  .00001414  00000-0  11382-3 0  9996","MEAN_ANOMALY":"309.5109","ECCENTRICITY":"0.00020410","EPOCH":"2022-05-19T03:25:44.290272","RA_OF_ASC_NODE":"79.0349","ARG_OF_PERICENTER":"50.6061","TLE_LINE2":"2 46174  53.0569  79.0349 0002041  50.6061 309.5109 15.06397115 97134","MEAN_MOTION_DDOT":"0.0000000000000","DECAY_DATE":null,"OBJECT_NAME":"STARLINK-1641","CENTER_NAME":"EARTH","FILE":"3452429","MEAN_ELEMENT_THEORY":"SGP4","REV_AT_EPOCH":"9713","TIME_SYSTEM":"UTC","RCS_SIZE":"LARGE","NORAD_CAT_ID":"46174","MEAN_MOTION":"15.06397115","ELEMENT_SET_NO":"999","SITE":"AFETR","OBJECT_TYPE":"PAYLOAD","GP_ID":"203909762","PERIAPSIS":"545.809","MEAN_MOTION_DOT":"0.00001414","REF_FRAME":"TEME","SEMIMAJOR_AXIS":"6925.357","LAUNCH_DATE":"2020-08-18","APOAPSIS":"548.636"},{"INCLINATION":"53.0553","CLASSIFICATION_TYPE":"U","OBJECT_ID":"2020-062A","BSTAR":"0.00006224800000","EPHEMERIS_TYPE":"0","MEAN_ANOMALY":"320.1989","COUNTRY_CODE":"US","PERIOD":"95.592","TLE_LINE1":"1 46325U 20062A   22139.15438992  .00000646  00000-0  62248-4 0  9990","EPOCH":"2022-05-19T03:42:19.289088","ECCENTRICITY":"0.00021070","ARG_OF_PERICENTER":"39.9154","RA_OF_ASC_NODE":"93.9831","MEAN_MOTION_DDOT":"0.0000000000000","TLE_LINE2":"2 46325  53.0553  93.9831 0002107  39.9154 320.1989 15.06398024 95944","DECAY_DATE":null,"OBJECT_NAME":"STARLINK-1734","CENTER_NAME":"EARTH","MEAN_ELEMENT_THEORY":"SGP4","FILE":"3452740","REV_AT_EPOCH":"9594","NORAD_CAT_ID":"46325","TIME_SYSTEM":"UTC","RCS_SIZE":"LARGE","ELEMENT_SET_NO":"999","MEAN_MOTION":"15.06398024","OBJECT_TYPE":"PAYLOAD","SITE":"AFETR","GP_ID":"203917390","PERIAPSIS":"545.760","MEAN_MOTION_DOT":"0.00000646","APOAPSIS":"548.679","LAUNCH_DATE":"2020-09-03","REF_FRAME":"TEME","SEMIMAJOR_AXIS":"6925.355"},{"SITE":"AFETR","OBJECT_TYPE":"PAYLOAD","MEAN_MOTION":"15.06324424","ELEMENT_SET_NO":"999","REF_FRAME":"TEME","SEMIMAJOR_AXIS":"6925.580","APOAPSIS":"548.660","LAUNCH_DATE":"2020-09-03","GP_ID":"203909966","PERIAPSIS":"546.230","MEAN_MOTION_DOT":"0.00021263","FILE":"3452441","MEAN_ELEMENT_THEORY":"SGP4","CENTER_NAME":"EARTH","TIME_SYSTEM":"UTC","RCS_SIZE":"LARGE","NORAD_CAT_ID":"46326","REV_AT_EPOCH":"9491","RA_OF_ASC_NODE":"138.7940","ARG_OF_PERICENTER":"52.6598","ECCENTRICITY":"0.00017540","EPOCH":"2022-05-19T04:41:23.532864","DECAY_DATE":null,"OBJECT_NAME":"STARLINK-1654","TLE_LINE2":"2 46326  53.0560 138.7940 0001754  52.6598 307.4551 15.06324424 94915","MEAN_MOTION_DDOT":"0.0000000000000","BSTAR":"0.00144500000000","CLASSIFICATION_TYPE":"U","OBJECT_ID":"2020-062B","INCLINATION":"53.0560","COUNTRY_CODE":"US","PERIOD":"95.597","TLE_LINE1":"1 46326U 20062B   22139.19541126  .00021263  00000-0  14450-2 0  9997","MEAN_ANOMALY":"307.4551","EPHEMERIS_TYPE":"0"},{"MEAN_MOTION_DOT":"0.00000921","PERIAPSIS":"546.095","GP_ID":"203902236","SEMIMAJOR_AXIS":"6925.352","REF_FRAME":"TEME","LAUNCH_DATE":"2020-09-03","APOAPSIS":"548.340","MEAN_MOTION":"15.06398749","ELEMENT_SET_NO":"999","SITE":"AFETR","OBJECT_TYPE":"PAYLOAD","REV_AT_EPOCH":"9465","RCS_SIZE":"LARGE","TIME_SYSTEM":"UTC","NORAD_CAT_ID":"46327","CENTER_NAME":"EARTH","FILE":"3452356","MEAN_ELEMENT_THEORY":"SGP4","TLE_LINE2":"2 46327  53.0528 140.9762 0001621  59.4461 300.6688 15.06398749 94652","MEAN_MOTION_DDOT":"0.0000000000000","OBJECT_NAME":"STARLINK-1673","DECAY_DATE":null,"ECCENTRICITY":"0.00016210","EPOCH":"2022-05-18T17:02:05.467200","RA_OF_ASC_NODE":"140.9762","ARG_OF_PERICENTER":"59.4461","EPHEMERIS_TYPE":"0","TLE_LINE1":"1 46327U 20062C   22138.70978550  .00000921  00000-0  80712-4 0  9993","PERIOD":"95.592","COUNTRY_CODE":"US","MEAN_ANOMALY":"300.6688","OBJECT_ID":"2020-062C","CLASSIFICATION_TYPE":"U","INCLINATION":"53.0528","BSTAR":"0.00008071200000"},{"DECAY_DATE":null,"OBJECT_NAME":"STARLINK-1686","TLE_LINE2":"2 46328  53.0556 121.0673 0002707  50.8605 309.2624 15.06400414 94935","MEAN_MOTION_DDOT":"0.0000000000000","ARG_OF_PERICENTER":"50.8605","RA_OF_ASC_NODE":"121.0673","EPOCH":"2022-05-18T16:32:53.108448","ECCENTRICITY":"0.00027070","MEAN_ANOMALY":"309.2624","COUNTRY_CODE":"US","TLE_LINE1":"1 46328U 20062D   22138.68950357  .00000980  00000-0  84699-4 0  9999","PERIOD":"95.592","EPHEMERIS_TYPE":"0","BSTAR":"0.00008469900000","INCLINATION":"53.0556","CLASSIFICATION_TYPE":"U","OBJECT_ID":"2020-062D","LAUNCH_DATE":"2020-09-03","APOAPSIS":"549.087","REF_FRAME":"TEME","SEMIMAJOR_AXIS":"6925.347","GP_ID":"203902486","PERIAPSIS":"545.338","MEAN_MOTION_DOT":"0.00000980","OBJECT_TYPE":"PAYLOAD","SITE":"AFETR","ELEMENT_SET_NO":"999","MEAN_MOTION":"15.06400414","NORAD_CAT_ID":"46328","TIME_SYSTEM":"UTC","RCS_SIZE":"LARGE","REV_AT_EPOCH":"9493","MEAN_ELEMENT_THEORY":"SGP4","FILE":"3452356","CENTER_NAME":"EARTH"}];
